[{"OBJECT_NAME":"GAOFEN-3 02","OBJECT_ID":"2021-109A","EPOCH":"2026-03-09T23:26:55.915584","MEAN_MOTION":14.42215794,"ECCENTRICITY":0.00015915,"INCLINATION":98.4134,"RA_OF_ASC_NODE":78.4682,"ARG_OF_PERICENTER":307.7744,"MEAN_ANOMALY":52.3302,"EPHEMERIS_TYPE":0,"CLASSIFICATION_TYPE":"U","NORAD_CAT_ID":49495,"ELEMENT_SET_NO":999,"REV_AT_EPOCH":22601,"BSTAR":5.592981e-6,"MEAN_MOTION_DOT":-2.5e-7,"MEAN_MOTION_DDOT":0},{"OBJECT_NAME":"SL-8 R\/B","OBJECT_ID":"1982-001B","EPOCH":"2026-03-09T22:02:04.151904","MEAN_MOTION":14.39875272,"ECCENTRICITY":0.00201713,"INCLINATION":74.0385,"RA_OF_ASC_NODE":272.6903,"ARG_OF_PERICENTER":286.04,"MEAN_ANOMALY":73.8533,"EPHEMERIS_TYPE":0,"CLASSIFICATION_TYPE":"U","NORAD_CAT_ID":13028,"ELEMENT_SET_NO":999,"REV_AT_EPOCH":31530,"BSTAR":0.00011682733,"MEAN_MOTION_DOT":3.41e-6,"MEAN_MOTION_DDOT":0}]
